{"type": "FeatureCollection", "features": [ {"type": "Feature", "properties": {"norad_id": 66890, "name": "STARLINK-35885", "group": "last-30-days", "lat": -40.73539101368102, "lon": -17.08856703860703, "alt_km": 358.2293824791759, "timestamp": "2025-12-22T20:43:44.566827+00:00", "meta": {"OBJECT_NAME": "STARLINK-35885", "OBJECT_ID": "2025-283N", "EPOCH": "2025-12-22T14:00:01.999872", "MEAN_MOTION": 15.73209761, "ECCENTRICITY": 0.00012171, "INCLINATION": 53.1579, "RA_OF_ASC_NODE": 24.52, "ARG_OF_PERICENTER": 92.2561, "MEAN_ANOMALY": 65.0561, "EPHEMERIS_TYPE": 0, "CLASSIFICATION_TYPE": "U", "NORAD_CAT_ID": 66890, "ELEMENT_SET_NO": 999, "REV_AT_EPOCH": 401, "BSTAR": -0.015715312, "MEAN_MOTION_DOT": -0.01915631, "MEAN_MOTION_DDOT": 0}, "tle": {"line1": "1 66890U 25283N   25356.58335648 -.01915631  00000+0 -15715-1 0  9999", "line2": "2 66890  53.1579  24.5200 0001217  92.2561  65.0561 15.73209761  4019"}}, "geometry": {"type": "Point", "coordinates": [-17.08856703860703, -40.73539101368102]}}, {"type": "Feature", "properties": {"norad_id": 66891, "name": "STARLINK-35855", "group": "last-30-days", "lat": -39.54875480075101, "lon": -15.125595434767767, "alt_km": 358.2388745589478, "timestamp": "2025-12-22T20:43:44.566837+00:00", "meta": {"OBJECT_NAME": "STARLINK-35855", "OBJECT_ID": "2025-283P", "EPOCH": "2025-12-22T14:00:01.999872", "MEAN_MOTION": 15.73176275, "ECCENTRICITY": 0.00013656, "INCLINATION": 53.1582, "RA_OF_ASC_NODE": 24.5164, "ARG_OF_PERICENTER": 88.4416, "MEAN_ANOMALY": 70.8122, "EPHEMERIS_TYPE": 0, "CLASSIFICATION_TYPE": "U", "NORAD_CAT_ID": 66891, "ELEMENT_SET_NO": 999, "REV_AT_EPOCH": 401, "BSTAR": -0.015416354, "MEAN_MOTION_DOT": -0.01881847, "MEAN_MOTION_DDOT": 0}, "tle": {"line1": "1 66891U 25283P   25356.58335648 -.01881847  00000+0 -15416-1 0  9999", "line2": "2 66891  53.1582  24.5164 0001365  88.4416  70.8122 15.73176275  4013"}}, "geometry": {"type": "Point", "coordinates": [-15.125595434767767, -39.54875480075101]}}, {"type": "Feature", "properties": {"norad_id": 66892, "name": "STARLINK-35883", "group": "last-30-days", "lat": -38.332563116614374, "lon": -13.234674430493133, "alt_km": 358.15295419951144, "timestamp": "2025-12-22T20:43:44.566847+00:00", "meta": {"OBJECT_NAME": "STARLINK-35883", "OBJECT_ID": "2025-283Q", "EPOCH": "2025-12-22T14:00:01.999872", "MEAN_MOTION": 15.73176544, "ECCENTRICITY": 0.00015031, "INCLINATION": 53.1584, "RA_OF_ASC_NODE": 24.5117, "ARG_OF_PERICENTER": 81.1803, "MEAN_ANOMALY": 79.9899, "EPHEMERIS_TYPE": 0, "CLASSIFICATION_TYPE": "U", "NORAD_CAT_ID": 66892, "ELEMENT_SET_NO": 999, "REV_AT_EPOCH": 395, "BSTAR": -0.015413191, "MEAN_MOTION_DOT": -0.01881652, "MEAN_MOTION_DDOT": 0}, "tle": {"line1": "1 66892U 25283Q   25356.58335648 -.01881652  00000+0 -15413-1 0  9991", "line2": "2 66892  53.1584  24.5117 0001503  81.1803  79.9899 15.73176544  3950"}}, "geometry": {"type": "Point", "coordinates": [-13.234674430493133, -38.332563116614374]}}, {"type": "Feature", "properties": {"norad_id": 66893, "name": "STARLINK-36033", "group": "last-30-days", "lat": -37.084840270047216, "lon": -11.40406715324171, "alt_km": 357.8764948267981, "timestamp": "2025-12-22T20:43:44.566859+00:00", "meta": {"OBJECT_NAME": "STARLINK-36033", "OBJECT_ID": "2025-283R", "EPOCH": "2025-12-22T14:00:01.999872", "MEAN_MOTION": 15.73176178, "ECCENTRICITY": 0.00014343, "INCLINATION": 53.1582, "RA_OF_ASC_NODE": 24.5077, "ARG_OF_PERICENTER": 67.8626, "MEAN_ANOMALY": 95.227, "EPHEMERIS_TYPE": 0, "CLASSIFICATION_TYPE": "U", "NORAD_CAT_ID": 66893, "ELEMENT_SET_NO": 999, "REV_AT_EPOCH": 401, "BSTAR": -0.015432607, "MEAN_MOTION_DOT": -0.01883619, "MEAN_MOTION_DDOT": 0}, "tle": {"line1": "1 66893U 25283R   25356.58335648 -.01883619  00000+0 -15433-1 0  9999", "line2": "2 66893  53.1582  24.5077 0001434  67.8626  95.2270 15.73176178  4016"}}, "geometry": {"type": "Point", "coordinates": [-11.40406715324171, -37.084840270047216]}}, {"type": "Feature", "properties": {"norad_id": 66894, "name": "STARLINK-35718", "group": "last-30-days", "lat": -35.80938761722917, "lon": -9.632195628637378, "alt_km": 357.8868096651604, "timestamp": "2025-12-22T20:43:44.566869+00:00", "meta": {"OBJECT_NAME": "STARLINK-35718", "OBJECT_ID": "2025-283S", "EPOCH": "2025-12-22T14:00:01.999872", "MEAN_MOTION": 15.73175617, "ECCENTRICITY": 0.00015291, "INCLINATION": 53.1582, "RA_OF_ASC_NODE": 24.5042, "ARG_OF_PERICENTER": 72.9425, "MEAN_ANOMALY": 92.0657, "EPHEMERIS_TYPE": 0, "CLASSIFICATION_TYPE": "U", "NORAD_CAT_ID": 66894, "ELEMENT_SET_NO": 999, "REV_AT_EPOCH": 401, "BSTAR": -0.015438546, "MEAN_MOTION_DOT": -0.01884291, "MEAN_MOTION_DDOT": 0}, "tle": {"line1": "1 66894U 25283S   25356.58335648 -.01884291  00000+0 -15439-1 0  9993", "line2": "2 66894  53.1582  24.5042 0001529  72.9425  92.0657 15.73175617  4019"}}, "geometry": {"type": "Point", "coordinates": [-9.632195628637378, -35.80938761722917]}}, {"type": "Feature", "properties": {"norad_id": 66895, "name": "STARLINK-35971", "group": "last-30-days", "lat": -33.18587910462734, "lon": -6.259175683978924, "alt_km": 357.4559028997446, "timestamp": "2025-12-22T20:43:44.566879+00:00", "meta": {"OBJECT_NAME": "STARLINK-35971", "OBJECT_ID": "2025-283T", "EPOCH": "2025-12-22T14:00:01.999872", "MEAN_MOTION": 15.73153056, "ECCENTRICITY": 0.00015319, "INCLINATION": 53.1584, "RA_OF_ASC_NODE": 24.4944, "ARG_OF_PERICENTER": 56.157, "MEAN_ANOMALY": 112.7012, "EPHEMERIS_TYPE": 0, "CLASSIFICATION_TYPE": "U", "NORAD_CAT_ID": 66895, "ELEMENT_SET_NO": 999, "REV_AT_EPOCH": 401, "BSTAR": -0.015254877, "MEAN_MOTION_DOT": -0.01863261, "MEAN_MOTION_DDOT": 0}, "tle": {"line1": "1 66895U 25283T   25356.58335648 -.01863261  00000+0 -15255-1 0  9994", "line2": "2 66895  53.1584  24.4944 0001531  56.1570 112.7012 15.73153056  4018"}}, "geometry": {"type": "Point", "coordinates": [-6.259175683978924, -33.18587910462734]}}, {"type": "Feature", "properties": {"norad_id": 66896, "name": "STARLINK-35791", "group": "last-30-days", "lat": -34.51043015535012, "lon": -7.920546374109065, "alt_km": 357.51378763551475, "timestamp": "2025-12-22T20:43:44.566892+00:00", "meta": {"OBJECT_NAME": "STARLINK-35791", "OBJECT_ID": "2025-283U", "EPOCH": "2025-12-22T14:00:01.999872", "MEAN_MOTION": 15.73170463, "ECCENTRICITY": 0.0001013, "INCLINATION": 53.1583, "RA_OF_ASC_NODE": 24.4993, "ARG_OF_PERICENTER": 63.3361, "MEAN_ANOMALY": 103.583, "EPHEMERIS_TYPE": 0, "CLASSIFICATION_TYPE": "U", "NORAD_CAT_ID": 66896, "ELEMENT_SET_NO": 999, "REV_AT_EPOCH": 401, "BSTAR": -0.015318556, "MEAN_MOTION_DOT": -0.0187079, "MEAN_MOTION_DDOT": 0}, "tle": {"line1": "1 66896U 25283U   25356.58335648 -.01870790  00000+0 -15319-1 0  9991", "line2": "2 66896  53.1583  24.4993 0001013  63.3361 103.5830 15.73170463  4012"}}, "geometry": {"type": "Point", "coordinates": [-7.920546374109065, -34.51043015535012]}}, {"type": "Feature", "properties": {"norad_id": 66897, "name": "STARLINK-36079", "group": "last-30-days", "lat": -31.845502097259033, "lon": -4.652818155324323, "alt_km": 357.55917088589285, "timestamp": "2025-12-22T20:43:44.566903+00:00", "meta": {"OBJECT_NAME": "STARLINK-36079", "OBJECT_ID": "2025-283V", "EPOCH": "2025-12-22T14:00:01.999872", "MEAN_MOTION": 15.73168085, "ECCENTRICITY": 0.00015918, "INCLINATION": 53.1584, "RA_OF_ASC_NODE": 24.4914, "ARG_OF_PERICENTER": 71.5156, "MEAN_ANOMALY": 99.2378, "EPHEMERIS_TYPE": 0, "CLASSIFICATION_TYPE": "U", "NORAD_CAT_ID": 66897, "ELEMENT_SET_NO": 999, "REV_AT_EPOCH": 401, "BSTAR": -0.015279699, "MEAN_MOTION_DOT": -0.01866999, "MEAN_MOTION_DDOT": 0}, "tle": {"line1": "1 66897U 25283V   25356.58335648 -.01866999  00000+0 -15280-1 0  9995", "line2": "2 66897  53.1584  24.4914 0001591  71.5156  99.2378 15.73168085  4016"}}, "geometry": {"type": "Point", "coordinates": [-4.652818155324323, -31.845502097259033]}}, {"type": "Feature", "properties": {"norad_id": 66898, "name": "STARLINK-36065", "group": "last-30-days", "lat": -30.477831010340395, "lon": -3.0860068110144265, "alt_km": 357.4643508273866, "timestamp": "2025-12-22T20:43:44.566920+00:00", "meta": {"OBJECT_NAME": "STARLINK-36065", "OBJECT_ID": "2025-283W", "EPOCH": "2025-12-22T14:00:01.999872", "MEAN_MOTION": 15.73169674, "ECCENTRICITY": 0.0001511, "INCLINATION": 53.1583, "RA_OF_ASC_NODE": 24.4868, "ARG_OF_PERICENTER": 74.2532, "MEAN_ANOMALY": 98.4192, "EPHEMERIS_TYPE": 0, "CLASSIFICATION_TYPE": "U", "NORAD_CAT_ID": 66898, "ELEMENT_SET_NO": 999, "REV_AT_EPOCH": 401, "BSTAR": -0.015317272, "MEAN_MOTION_DOT": -0.01871022, "MEAN_MOTION_DDOT": 0}, "tle": {"line1": "1 66898U 25283W   25356.58335648 -.01871022  00000+0 -15317-1 0  9990", "line2": "2 66898  53.1583  24.4868 0001511  74.2532  98.4192 15.73169674  4014"}}, "geometry": {"type": "Point", "coordinates": [-3.0860068110144265, -30.477831010340395]}}, {"type": "Feature", "properties": {"norad_id": 66899, "name": "STARLINK-36064", "group": "last-30-days", "lat": -29.092293729474147, "lon": -1.562900861889223, "alt_km": 357.2131475973056, "timestamp": "2025-12-22T20:43:44.566930+00:00", "meta": {"OBJECT_NAME": "STARLINK-36064", "OBJECT_ID": "2025-283X", "EPOCH": "2025-12-22T14:00:01.999872", "MEAN_MOTION": 15.73171804, "ECCENTRICITY": 0.00013033, "INCLINATION": 53.1581, "RA_OF_ASC_NODE": 24.4829, "ARG_OF_PERICENTER": 67.832, "MEAN_ANOMALY": 106.7579, "EPHEMERIS_TYPE": 0, "CLASSIFICATION_TYPE": "U", "NORAD_CAT_ID": 66899, "ELEMENT_SET_NO": 999, "REV_AT_EPOCH": 395, "BSTAR": -0.015363695, "MEAN_MOTION_DOT": -0.01875908, "MEAN_MOTION_DDOT": 0}, "tle": {"line1": "1 66899U 25283X   25356.58335648 -.01875908  00000+0 -15364-1 0  9990", "line2": "2 66899  53.1581  24.4829 0001303  67.8320 106.7579 15.73171804  3954"}}, "geometry": {"type": "Point", "coordinates": [-1.562900861889223, -29.092293729474147]}}]}